[
    {
        "Altitude(m)": 554884.4035916717,
        "Argument of Periapsis(deg)": 0.006622991110713501,
        "Eccentricity": 0.0,
        "Inclination(deg)": 53.0,
        "Latitude(deg)": 28.941013898855417,
        "Longitude(deg)": 59.745130928565665,
        "Mean Anomaly(deg)": 142.81889286757757,
        "RAAN(deg)": 4.990143368528017,
        "Satellite Name": "Starlink Shell 1 30",
        "Satellite Number": 30,
        "Semi-Major Axis(m)": 6931778.249405717,
        "Time(s)": 190
    },
    {
        "Altitude(m)": 554814.468156331,
        "Argument of Periapsis(deg)": 0.0069715695902247375,
        "Eccentricity": 0.0,
        "Inclination(deg)": 53.0,
        "Latitude(deg)": 28.48237224825998,
        "Longitude(deg)": 60.19287813204947,
        "Mean Anomaly(deg)": 143.4457240711343,
        "RAAN(deg)": 4.989624598450544,
        "Satellite Name": "Starlink Shell 1 30",
        "Satellite Number": 30,
        "Semi-Major Axis(m)": 6931778.249405717,
        "Time(s)": 200
    },
    {
        "Altitude(m)": 554745.7704494937,
        "Argument of Periapsis(deg)": 0.007320148069735974,
        "Eccentricity": 0.0,
        "Inclination(deg)": 53.0,
        "Latitude(deg)": 28.02195629960875,
        "Longitude(deg)": 60.6364134196385,
        "Mean Anomaly(deg)": 144.07255527469104,
        "RAAN(deg)": 4.989105828373071,
        "Satellite Name": "Starlink Shell 1 30",
        "Satellite Number": 30,
        "Semi-Major Axis(m)": 6931778.249405717,
        "Time(s)": 210
    },
    {
        "Altitude(m)": 554678.3626581205,
        "Argument of Periapsis(deg)": 0.007668726549247212,
        "Eccentricity": 0.0,
        "Inclination(deg)": 53.0,
        "Latitude(deg)": 27.55981395828273,
        "Longitude(deg)": 61.075836840674235,
        "Mean Anomaly(deg)": 144.69938647824773,
        "RAAN(deg)": 4.9885870582955985,
        "Satellite Name": "Starlink Shell 1 30",
        "Satellite Number": 30,
        "Semi-Major Axis(m)": 6931778.249405717,
        "Time(s)": 220
    },
    {
        "Altitude(m)": 554612.2965077556,
        "Argument of Periapsis(deg)": 0.00801730502875845,
        "Eccentricity": 0.0,
        "Inclination(deg)": 53.0,
        "Latitude(deg)": 27.095992095125265,
        "Longitude(deg)": 61.511247121214694,
        "Mean Anomaly(deg)": 145.32621768180445,
        "RAAN(deg)": 4.988068288218125,
        "Satellite Name": "Starlink Shell 1 30",
        "Satellite Number": 30,
        "Semi-Major Axis(m)": 6931778.249405717,
        "Time(s)": 230
    },
    {
        "Altitude(m)": 554547.6232349488,
        "Argument of Periapsis(deg)": 0.008365883508269684,
        "Eccentricity": 0.0,
        "Inclination(deg)": 53.0,
        "Latitude(deg)": 26.630536576161667,
        "Longitude(deg)": 61.94274216998452,
        "Mean Anomaly(deg)": 145.95304888536114,
        "RAAN(deg)": 4.9875495181406535,
        "Satellite Name": "Starlink Shell 1 30",
        "Satellite Number": 30,
        "Semi-Major Axis(m)": 6931778.249405717,
        "Time(s)": 240
    },
    {
        "Altitude(m)": 554484.3935599336,
        "Argument of Periapsis(deg)": 0.008714461987780921,
        "Eccentricity": 0.0,
        "Inclination(deg)": 53.0,
        "Latitude(deg)": 26.163492291832608,
        "Longitude(deg)": 62.37041807411297,
        "Mean Anomaly(deg)": 146.5798800889179,
        "RAAN(deg)": 4.98703074806318,
        "Satellite Name": "Starlink Shell 1 30",
        "Satellite Number": 30,
        "Semi-Major Axis(m)": 6931778.249405717,
        "Time(s)": 250
    },
    {
        "Altitude(m)": 554422.657659487,
        "Argument of Periapsis(deg)": 0.009063040467292158,
        "Eccentricity": 0.0,
        "Inclination(deg)": 53.0,
        "Latitude(deg)": 25.69490318573,
        "Longitude(deg)": 62.7943696101874,
        "Mean Anomaly(deg)": 147.2067112924746,
        "RAAN(deg)": 4.986511977985707,
        "Satellite Name": "Starlink Shell 1 30",
        "Satellite Number": 30,
        "Semi-Major Axis(m)": 6931778.249405717,
        "Time(s)": 260
    },
    {
        "Altitude(m)": 554362.4651400239,
        "Argument of Periapsis(deg)": 0.009411618946803396,
        "Eccentricity": 0.0,
        "Inclination(deg)": 53.0,
        "Latitude(deg)": 25.224812282822423,
        "Longitude(deg)": 63.214690757540005,
        "Mean Anomaly(deg)": 147.83354249603133,
        "RAAN(deg)": 4.985993207908234,
        "Satellite Name": "Starlink Shell 1 30",
        "Satellite Number": 30,
        "Semi-Major Axis(m)": 6931778.249405717,
        "Time(s)": 270
    },
    {
        "Altitude(m)": 554303.8650109407,
        "Argument of Periapsis(deg)": 0.009760197426314633,
        "Eccentricity": 0.0,
        "Inclination(deg)": 53.0,
        "Latitude(deg)": 24.753261717159937,
        "Longitude(deg)": 63.63147370069964,
        "Mean Anomaly(deg)": 148.46037369958805,
        "RAAN(deg)": 4.985474437830762,
        "Satellite Name": "Starlink Shell 1 30",
        "Satellite Number": 30,
        "Semi-Major Axis(m)": 6931778.249405717,
        "Time(s)": 280
    },
    {
        "Altitude(m)": 554246.9056582089,
        "Argument of Periapsis(deg)": 0.01010877590582587,
        "Eccentricity": 0.0,
        "Inclination(deg)": 53.0,
        "Latitude(deg)": 24.28029275905568,
        "Longitude(deg)": 64.04480934657617,
        "Mean Anomaly(deg)": 149.08720490314474,
        "RAAN(deg)": 4.984955667753289,
        "Satellite Name": "Starlink Shell 1 30",
        "Satellite Number": 30,
        "Semi-Major Axis(m)": 6931778.249405717,
        "Time(s)": 290
    },
    {
        "Altitude(m)": 554191.6348182482,
        "Argument of Periapsis(deg)": 0.010457354385337106,
        "Eccentricity": 0.0,
        "Inclination(deg)": 53.0,
        "Latitude(deg)": 23.805945841737323,
        "Longitude(deg)": 64.45478784333528,
        "Mean Anomaly(deg)": 149.71403610670146,
        "RAAN(deg)": 4.984436897675816,
        "Satellite Name": "Starlink Shell 1 30",
        "Satellite Number": 30,
        "Semi-Major Axis(m)": 6931778.249405717,
        "Time(s)": 300
    },
    {
        "Altitude(m)": 554138.0995520757,
        "Argument of Periapsis(deg)": 0.010805932864848343,
        "Eccentricity": 0.0,
        "Inclination(deg)": 53.0,
        "Latitude(deg)": 23.330260587466615,
        "Longitude(deg)": 64.8614975879313,
        "Mean Anomaly(deg)": 150.34086731025818,
        "RAAN(deg)": 4.9839181275983435,
        "Satellite Name": "Starlink Shell 1 30",
        "Satellite Number": 30,
        "Semi-Major Axis(m)": 6931778.249405717,
        "Time(s)": 310
    },
    {
        "Altitude(m)": 554086.3462197639,
        "Argument of Periapsis(deg)": 0.01115451134435958,
        "Eccentricity": 0.0,
        "Inclination(deg)": 53.0,
        "Latitude(deg)": 22.853275833128635,
        "Longitude(deg)": 65.26502574790119,
        "Mean Anomaly(deg)": 150.96769851381487,
        "RAAN(deg)": 4.98339935752087,
        "Satellite Name": "Starlink Shell 1 30",
        "Satellite Number": 30,
        "Semi-Major Axis(m)": 6931778.249405717,
        "Time(s)": 320
    },
    {
        "Altitude(m)": 554036.4204552032,
        "Argument of Periapsis(deg)": 0.011503089823870818,
        "Eccentricity": 0.0,
        "Inclination(deg)": 53.0,
        "Latitude(deg)": 22.375029655290696,
        "Longitude(deg)": 65.66545878441032,
        "Mean Anomaly(deg)": 151.59452971737161,
        "RAAN(deg)": 4.982880587443398,
        "Satellite Name": "Starlink Shell 1 30",
        "Satellite Number": 30,
        "Semi-Major Axis(m)": 6931778.249405717,
        "Time(s)": 330
    },
    {
        "Altitude(m)": 553988.3671411917,
        "Argument of Periapsis(deg)": 0.011851668303382053,
        "Eccentricity": 0.0,
        "Inclination(deg)": 53.0,
        "Latitude(deg)": 21.895559394732963,
        "Longitude(deg)": 66.06288146354936,
        "Mean Anomaly(deg)": 152.2213609209283,
        "RAAN(deg)": 4.982361817365925,
        "Satellite Name": "Starlink Shell 1 30",
        "Satellite Number": 30,
        "Semi-Major Axis(m)": 6931778.249405717,
        "Time(s)": 340
    },
    {
        "Altitude(m)": 553942.2303848669,
        "Argument of Periapsis(deg)": 0.012200246782893292,
        "Eccentricity": 0.0,
        "Inclination(deg)": 53.0,
        "Latitude(deg)": 21.414901680457334,
        "Longitude(deg)": 66.45737738151509,
        "Mean Anomaly(deg)": 152.84819212448505,
        "RAAN(deg)": 4.981843047288453,
        "Satellite Name": "Starlink Shell 1 30",
        "Satellite Number": 30,
        "Semi-Major Axis(m)": 6931778.249405717,
        "Time(s)": 350
    },
    {
        "Altitude(m)": 553898.0534934851,
        "Argument of Periapsis(deg)": 0.012548825262404526,
        "Eccentricity": 0.0,
        "Inclination(deg)": 53.0,
        "Latitude(deg)": 20.933092453178592,
        "Longitude(deg)": 66.84902949069277,
        "Mean Anomaly(deg)": 153.47502332804177,
        "RAAN(deg)": 4.981324277210979,
        "Satellite Name": "Starlink Shell 1 30",
        "Satellite Number": 30,
        "Semi-Major Axis(m)": 6931778.249405717,
        "Time(s)": 360
    },
    {
        "Altitude(m)": 553855.8789505818,
        "Argument of Periapsis(deg)": 0.012897403741915765,
        "Eccentricity": 0.0,
        "Inclination(deg)": 53.0,
        "Latitude(deg)": 20.450166988302925,
        "Longitude(deg)": 67.237919113667,
        "Mean Anomaly(deg)": 154.10185453159846,
        "RAAN(deg)": 4.980805507133506,
        "Satellite Name": "Starlink Shell 1 30",
        "Satellite Number": 30,
        "Semi-Major Axis(m)": 6931778.249405717,
        "Time(s)": 370
    }
]